{
  "type": "FeatureCollection",
  "features": [
    {"type":"Feature","properties":{"destinationId":"madeira"},"geometry":{"type":"Polygon","coordinates":[[[-17.28,32.72],[-17.17,32.66],[-16.93,32.65],[-16.70,32.75],[-16.76,32.82],[-17.05,32.84],[-17.28,32.72]]] }},
    {"type":"Feature","properties":{"destinationId":"tenerife"},"geometry":{"type":"Polygon","coordinates":[[[-16.92,28.37],[-16.78,28.05],[-16.50,28.00],[-16.12,28.17],[-16.18,28.48],[-16.47,28.60],[-16.75,28.53],[-16.92,28.37]]] }},
    {"type":"Feature","properties":{"destinationId":"mallorca"},"geometry":{"type":"Polygon","coordinates":[[[2.33,39.82],[2.52,39.51],[3.03,39.26],[3.48,39.55],[3.39,39.88],[2.93,40.07],[2.52,40.03],[2.33,39.82]]] }},
    {"type":"Feature","properties":{"destinationId":"dolomites"},"geometry":{"type":"Polygon","coordinates":[[[11.15,46.36],[11.39,46.16],[11.91,46.17],[12.50,46.38],[12.61,46.67],[12.18,46.80],[11.65,46.79],[11.15,46.36]]] }},
    {"type":"Feature","properties":{"destinationId":"chamonix"},"geometry":{"type":"Polygon","coordinates":[[[6.70,45.78],[6.81,45.74],[7.02,45.85],[7.08,46.04],[6.91,46.12],[6.74,46.04],[6.70,45.78]]] }}
  ]
}
